{
  "type": "FeatureCollection",
  "features": [
    {
      "type": "Feature",
      "properties": {
        "norad_id": 28890,
        "name": "BEIJING 1",
        "group": "dmc",
        "lat": -63.371561894215596,
        "lon": 142.63460275769313,
        "alt_km": 700.5295935666281,
        "timestamp": "2025-12-24T05:51:19.272050+00:00",
        "meta_object_name": "BEIJING 1",
        "meta_object_id": "2005-043A",
        "meta_epoch": "2025-12-23T23:35:12.138432",
        "meta_mean_motion": 14.63375111,
        "meta_eccentricity": 0.00157959,
        "meta_inclination": 98.2665,
        "meta_ra_of_asc_node": 125.517,
        "meta_arg_of_pericenter": 108.1837,
        "meta_mean_anomaly": 252.1086,
        "meta_ephemeris_type": 0,
        "meta_classification_type": "U",
        "meta_norad_cat_id": 28890,
        "meta_element_set_no": 999,
        "meta_rev_at_epoch": 7502,
        "meta_bstar": 4.8566934e-05,
        "meta_mean_motion_dot": 2.02e-06,
        "meta_mean_motion_ddot": 0,
        "tle_line1": "1 28890U 05043A   25357.98277938  .00000202  00000+0  48567-4 0  9991",
        "tle_line2": "2 28890  98.2665 125.5170 0015795 108.1837 252.1086 14.63375111 75021"
      },
      "geometry": {
        "type": "Point",
        "coordinates": [
          142.63460275769313,
          -63.371561894215596
        ]
      }
    },
    {
      "type": "Feature",
      "properties": {
        "norad_id": 33320,
        "name": "HUANJING 1A (HJ-1A)",
        "group": "dmc",
        "lat": 69.81404283777644,
        "lon": -35.395274772459274,
        "alt_km": 607.9018265846007,
        "timestamp": "2025-12-24T05:51:19.272075+00:00",
        "meta_object_name": "HUANJING 1A (HJ-1A)",
        "meta_object_id": "2008-041A",
        "meta_epoch": "2025-12-23T23:03:38.564064",
        "meta_mean_motion": 14.83427083,
        "meta_eccentricity": 0.00193136,
        "meta_inclination": 97.6546,
        "meta_ra_of_asc_node": 345.7907,
        "meta_arg_of_pericenter": 358.7486,
        "meta_mean_anomaly": 1.3677,
        "meta_ephemeris_type": 0,
        "meta_classification_type": "U",
        "meta_norad_cat_id": 33320,
        "meta_element_set_no": 999,
        "meta_rev_at_epoch": 93242,
        "meta_bstar": 0.00015514087,
        "meta_mean_motion_dot": 1.226e-05,
        "meta_mean_motion_ddot": 0,
        "tle_line1": "1 33320U 08041A   25357.96086301  .00001226  00000+0  15514-3 0  9998",
        "tle_line2": "2 33320  97.6546 345.7907 0019313 358.7486   1.3677 14.83427083932427"
      },
      "geometry": {
        "type": "Point",
        "coordinates": [
          -35.395274772459274,
          69.81404283777644
        ]
      }
    },
    {
      "type": "Feature",
      "properties": {
        "norad_id": 33321,
        "name": "HUANJING 1B (HJ-1B)",
        "group": "dmc",
        "lat": -82.1050511335892,
        "lon": 94.26401942815951,
        "alt_km": 645.0763987700202,
        "timestamp": "2025-12-24T05:51:19.272089+00:00",
        "meta_object_name": "HUANJING 1B (HJ-1B)",
        "meta_object_id": "2008-041B",
        "meta_epoch": "2025-12-23T23:47:29.232384",
        "meta_mean_motion": 14.8284783,
        "meta_eccentricity": 0.00377872,
        "meta_inclination": 97.6402,
        "meta_ra_of_asc_node": 349.4873,
        "meta_arg_of_pericenter": 40.0423,
        "meta_mean_anomaly": 320.3566,
        "meta_ephemeris_type": 0,
        "meta_classification_type": "U",
        "meta_norad_cat_id": 33321,
        "meta_element_set_no": 999,
        "meta_rev_at_epoch": 93244,
        "meta_bstar": 0.0001338043,
        "meta_mean_motion_dot": 1.045e-05,
        "meta_mean_motion_ddot": 0,
        "tle_line1": "1 33321U 08041B   25357.99131056  .00001045  00000+0  13380-3 0  9998",
        "tle_line2": "2 33321  97.6402 349.4873 0037787  40.0423 320.3566 14.82847830932447"
      },
      "geometry": {
        "type": "Point",
        "coordinates": [
          94.26401942815951,
          -82.1050511335892
        ]
      }
    },
    {
      "type": "Feature",
      "properties": {
        "norad_id": 33446,
        "name": "YAOGAN-4",
        "group": "dmc",
        "lat": 5.385477072735168,
        "lon": 108.98302324344077,
        "alt_km": 625.9225786585375,
        "timestamp": "2025-12-24T05:51:19.272101+00:00",
        "meta_object_name": "YAOGAN-4",
        "meta_object_id": "2008-061A",
        "meta_epoch": "2025-12-23T12:52:24.131424",
        "meta_mean_motion": 14.82712321,
        "meta_eccentricity": 0.00130241,
        "meta_inclination": 97.9197,
        "meta_ra_of_asc_node": 287.5304,
        "meta_arg_of_pericenter": 285.0861,
        "meta_mean_anomaly": 74.8911,
        "meta_ephemeris_type": 0,
        "meta_classification_type": "U",
        "meta_norad_cat_id": 33446,
        "meta_element_set_no": 999,
        "meta_rev_at_epoch": 91963,
        "meta_bstar": 0.00016555221,
        "meta_mean_motion_dot": 1.284e-05,
        "meta_mean_motion_ddot": 0,
        "tle_line1": "1 33446U 08061A   25357.53639041  .00001284  00000+0  16555-3 0  9997",
        "tle_line2": "2 33446  97.9197 287.5304 0013024 285.0861  74.8911 14.82712321919632"
      },
      "geometry": {
        "type": "Point",
        "coordinates": [
          108.98302324344077,
          5.385477072735168
        ]
      }
    },
    {
      "type": "Feature",
      "properties": {
        "norad_id": 35681,
        "name": "DEIMOS-1",
        "group": "dmc",
        "lat": -15.791832728098187,
        "lon": 160.50933074016666,
        "alt_km": 649.6586127640157,
        "timestamp": "2025-12-24T05:51:19.272113+00:00",
        "meta_object_name": "DEIMOS-1",
        "meta_object_id": "2009-041A",
        "meta_epoch": "2025-12-23T23:24:53.517888",
        "meta_mean_motion": 14.7497006,
        "meta_eccentricity": 0.00025115,
        "meta_inclination": 97.7154,
        "meta_ra_of_asc_node": 158.0562,
        "meta_arg_of_pericenter": 61.6046,
        "meta_mean_anomaly": 298.5417,
        "meta_ephemeris_type": 0,
        "meta_classification_type": "U",
        "meta_norad_cat_id": 35681,
        "meta_element_set_no": 999,
        "meta_rev_at_epoch": 88105,
        "meta_bstar": 0.00015484213,
        "meta_mean_motion_dot": 9.93e-06,
        "meta_mean_motion_ddot": 0,
        "tle_line1": "1 35681U 09041A   25357.97561942  .00000993  00000+0  15484-3 0  9997",
        "tle_line2": "2 35681  97.7154 158.0562 0002511  61.6046 298.5417 14.74970060881053"
      },
      "geometry": {
        "type": "Point",
        "coordinates": [
          160.50933074016666,
          -15.791832728098187
        ]
      }
    },
    {
      "type": "Feature",
      "properties": {
        "norad_id": 35683,
        "name": "UK-DMC 2",
        "group": "dmc",
        "lat": 26.834716518924616,
        "lon": 128.81660581290905,
        "alt_km": 641.6045470521021,
        "timestamp": "2025-12-24T05:51:19.272123+00:00",
        "meta_object_name": "UK-DMC 2",
        "meta_object_id": "2009-041C",
        "meta_epoch": "2025-12-23T23:13:23.933568",
        "meta_mean_motion": 14.75645635,
        "meta_eccentricity": 0.00015554,
        "meta_inclination": 97.8572,
        "meta_ra_of_asc_node": 132.5541,
        "meta_arg_of_pericenter": 91.0191,
        "meta_mean_anomaly": 269.1197,
        "meta_ephemeris_type": 0,
        "meta_classification_type": "U",
        "meta_norad_cat_id": 35683,
        "meta_element_set_no": 999,
        "meta_rev_at_epoch": 88072,
        "meta_bstar": 0.00019872055,
        "meta_mean_motion_dot": 1.308e-05,
        "meta_mean_motion_ddot": 0,
        "tle_line1": "1 35683U 09041C   25357.96763812  .00001308  00000+0  19872-3 0  9994",
        "tle_line2": "2 35683  97.8572 132.5541 0001555  91.0191 269.1197 14.75645635880729"
      },
      "geometry": {
        "type": "Point",
        "coordinates": [
          128.81660581290905,
          26.834716518924616
        ]
      }
    },
    {
      "type": "Feature",
      "properties": {
        "norad_id": 40715,
        "name": "DMC3-FM1",
        "group": "dmc",
        "lat": 57.171273238568496,
        "lon": 57.07142585364153,
        "alt_km": 609.164654695519,
        "timestamp": "2025-12-24T05:51:19.272134+00:00",
        "meta_object_name": "DMC3-FM1",
        "meta_object_id": "2015-032A",
        "meta_epoch": "2025-12-23T22:50:28.654656",
        "meta_mean_motion": 14.85460293,
        "meta_eccentricity": 0.00040308,
        "meta_inclination": 97.6684,
        "meta_ra_of_asc_node": 224.7357,
        "meta_arg_of_pericenter": 275.3153,
        "meta_mean_anomaly": 84.7603,
        "meta_ephemeris_type": 0,
        "meta_classification_type": "U",
        "meta_norad_cat_id": 40715,
        "meta_element_set_no": 999,
        "meta_rev_at_epoch": 56389,
        "meta_bstar": 0.00012829511,
        "meta_mean_motion_dot": 1.055e-05,
        "meta_mean_motion_ddot": 0,
        "tle_line1": "1 40715U 15032A   25357.95172054  .00001055  00000+0  12830-3 0  9990",
        "tle_line2": "2 40715  97.6684 224.7357 0004030 275.3153  84.7603 14.85460293563893"
      },
      "geometry": {
        "type": "Point",
        "coordinates": [
          57.07142585364153,
          57.171273238568496
        ]
      }
    },
    {
      "type": "Feature",
      "properties": {
        "norad_id": 40716,
        "name": "DMC3-FM2",
        "group": "dmc",
        "lat": 1.7293462438352911,
        "lon": -133.76439639940392,
        "alt_km": 614.4287275832176,
        "timestamp": "2025-12-24T05:51:19.272145+00:00",
        "meta_object_name": "DMC3-FM2",
        "meta_object_id": "2015-032B",
        "meta_epoch": "2025-12-23T21:45:51.251616",
        "meta_mean_motion": 14.85459108,
        "meta_eccentricity": 0.00046815,
        "meta_inclination": 97.674,
        "meta_ra_of_asc_node": 226.1439,
        "meta_arg_of_pericenter": 282.1246,
        "meta_mean_anomaly": 77.9445,
        "meta_ephemeris_type": 0,
        "meta_classification_type": "U",
        "meta_norad_cat_id": 40716,
        "meta_element_set_no": 999,
        "meta_rev_at_epoch": 56388,
        "meta_bstar": 8.1777349e-05,
        "meta_mean_motion_dot": 6.54e-06,
        "meta_mean_motion_ddot": 0,
        "tle_line1": "1 40716U 15032B   25357.90684319  .00000654  00000+0  81777-4 0  9999",
        "tle_line2": "2 40716  97.6740 226.1439 0004681 282.1246  77.9445 14.85459108563885"
      },
      "geometry": {
        "type": "Point",
        "coordinates": [
          -133.76439639940392,
          1.7293462438352911
        ]
      }
    },
    {
      "type": "Feature",
      "properties": {
        "norad_id": 40717,
        "name": "DMC3-FM3",
        "group": "dmc",
        "lat": -64.62231207451573,
        "lon": 31.58372392254146,
        "alt_km": 617.1511123901391,
        "timestamp": "2025-12-24T05:51:19.272155+00:00",
        "meta_object_name": "DMC3-FM3",
        "meta_object_id": "2015-032C",
        "meta_epoch": "2025-12-23T22:17:08.092896",
        "meta_mean_motion": 14.85445664,
        "meta_eccentricity": 0.00039969,
        "meta_inclination": 97.6794,
        "meta_ra_of_asc_node": 227.8054,
        "meta_arg_of_pericenter": 282.5918,
        "meta_mean_anomaly": 77.4851,
        "meta_ephemeris_type": 0,
        "meta_classification_type": "U",
        "meta_norad_cat_id": 40717,
        "meta_element_set_no": 999,
        "meta_rev_at_epoch": 56389,
        "meta_bstar": 0.00012809831,
        "meta_mean_motion_dot": 1.053e-05,
        "meta_mean_motion_ddot": 0,
        "tle_line1": "1 40717U 15032C   25357.92856589  .00001053  00000+0  12810-3 0  9997",
        "tle_line2": "2 40717  97.6794 227.8054 0003996 282.5918  77.4851 14.85445664563893"
      },
      "geometry": {
        "type": "Point",
        "coordinates": [
          31.58372392254146,
          -64.62231207451573
        ]
      }
    }
  ]
}